H1 CPF 01  gfz 2021 11 09 13  8132 tandemx   
H2 1003001  6202 36605    2021 11 09 12 59 42 2021 11 14 00 00 42   120 1 1  0 0 0
H9
10 0 59527  79902.000000  0   -3190330.499   6104672.116    134004.445
10 0 59527  80022.000000  0   -3012812.119   6148913.506   -769644.141
10 0 59527  80142.000000  0   -2782868.959   6082188.281  -1659753.319
10 0 59527  80262.000000  0   -2506493.655   5904878.822  -2520687.518
10 0 59527  80382.000000  0   -2190463.483   5619420.415  -3337354.980
10 0 59527  80502.000000  0   -1842180.931   5230261.506  -4095474.295
10 0 59527  80622.000000  0   -1469505.105   4743783.448  -4781823.652
10 0 59527  80742.000000  0   -1080578.839   4168184.720  -5384465.712
10 0 59527  80862.000000  0    -683654.818   3513333.749  -5892947.942
10 0 59527  80982.000000  0    -286923.759   2790591.264  -6298475.112
10 0 59527  81102.000000  0     101650.977   2012606.767  -6594049.649
10 0 59527  81222.000000  0     474488.333   1193095.980  -6774580.948
10 0 59527  81342.000000  0     824533.019    346600.724  -6836964.709
10 0 59527  81462.000000  0    1145385.498   -511764.903  -6780130.296
10 0 59527  81582.000000  0    1431415.529  -1366578.920  -6605055.878
10 0 59527  81702.000000  0    1677858.299  -2202380.761  -6314752.580
10 0 59527  81822.000000  0    1880893.110  -3003943.697  -5914219.263
10 0 59527  81942.000000  0    2037702.751  -3756548.706  -5410367.146
10 0 59527  82062.000000  0    2146512.616  -4446256.054  -4811910.995
10 0 59527  82182.000000  0    2206608.332  -5060165.056  -4129228.144
10 0 59527  82302.000000  0    2218332.046  -5586660.556  -3374189.601
10 0 59527  82422.000000  0    2183056.739  -6015641.932  -2559962.058
10 0 59527  82542.000000  0    2103138.707  -6338728.342  -1700783.309
10 0 59527  82662.000000  0    1981847.711  -6549433.514   -811713.902
10 0 59527  82782.000000  0    1823279.792  -6643306.515     91630.397
10 0 59527  82902.000000  0    1632250.149  -6618030.459    993359.829
10 0 59527  83022.000000  0    1414171.775  -6473482.221   1877597.228
10 0 59527  83142.000000  0    1174921.176  -6211745.845   2728768.845
10 0 59527  83262.000000  0     920695.077  -5837079.981   3531886.366
10 0 59527  83382.000000  0     657861.842  -5355843.140   4272816.868
10 0 59527  83502.000000  0     392812.063  -4776377.925   4938534.719
10 0 59527  83622.000000  0     131810.848  -4108857.049   5517351.650
10 0 59527  83742.000000  0    -119143.049  -3365094.530   5999120.199
10 0 59527  83862.000000  0    -354448.736  -2558326.692   6375406.848
10 0 59527  83982.000000  0    -569023.359  -1702970.404   6639631.996
10 0 59527  84102.000000  0    -758407.941   -814363.072   6787179.100
10 0 59527  84222.000000  0    -918857.524     91513.938   6815471.710
10 0 59527  84342.000000  0   -1047414.274    998323.394   6724015.842
10 0 59527  84462.000000  0   -1141961.471   1889666.438   6514407.744
10 0 59527  84582.000000  0   -1201258.114   2749378.500   6190307.743
10 0 59527  84702.000000  0   -1224954.245   3561822.835   5757380.390
10 0 59527  84822.000000  0   -1213586.184   4312177.226   5223200.692
10 0 59527  84942.000000  0   -1168551.388   4986708.906   4597128.139
10 0 59527  85062.000000  0   -1092064.545   5573033.795   3890147.763
10 0 59527  85182.000000  0    -987094.048   6060351.601   3114680.394
10 0 59527  85302.000000  0    -857283.145   6439655.549   2284367.472
10 0 59527  85422.000000  0    -706853.458   6703910.069   1413827.103
10 0 59527  85542.000000  0    -540494.182   6848188.193    518391.197
10 0 59527  85662.000000  0    -363240.684   6869768.600   -386171.259
10 0 59527  85782.000000  0    -180345.174   6768189.533  -1283941.079
10 0 59527  85902.000000  0       2856.987   6545254.767  -2159139.549
10 0 59527  86022.000000  0     181080.822   6204992.762  -2996412.367
10 0 59527  86142.000000  0     349222.626   5753574.138  -3781102.627
10 0 59527  86262.000000  0     502485.722   5199188.244  -4499508.588
10 0 59527  86382.000000  0     636497.702   4551882.012  -5139120.457
10 0 59528    102.000000  0     747416.422   3823366.215  -5688832.013
10 0 59528    222.000000  0     832022.021   3026793.988  -6139124.688
10 0 59528    342.000000  0     887793.324   2176516.425  -6482221.522
10 0 59528    462.000000  0     912967.983   1287821.652  -6712209.312
10 0 59528    582.000000  0     906584.687    376661.848  -6825130.726
10 0 59528    702.000000  0     868507.659   -540628.878  -6819045.263
10 0 59528    822.000000  0     799432.451  -1447621.492  -6694057.952
10 0 59528    942.000000  0     700873.453  -2328077.892  -6452316.221
10 0 59528   1062.000000  0     575133.796  -3166233.587  -6097978.753
10 0 59528   1182.000000  0     425256.502  -3947077.354  -5637153.095
10 0 59528   1302.000000  0     254958.789  -4656619.185  -5077799.417
10 0 59528   1422.000000  0      68550.522  -5282143.442  -4429604.768
10 0 59528   1542.000000  0    -129162.994  -5812443.928  -3703826.598
10 0 59528   1662.000000  0    -332991.466  -6238034.756  -2913105.935
10 0 59528   1782.000000  0    -537481.289  -6551331.942  -2071253.763
10 0 59528   1902.000000  0    -737045.923  -6746802.377  -1193012.305
10 0 59528   2022.000000  0    -926101.666  -6821073.702   -293794.590
10 0 59528   2142.000000  0   -1099205.554  -6773001.743    610591.178
10 0 59528   2262.000000  0   -1251192.194  -6603694.144   1504226.581
10 0 59528   2382.000000  0   -1377305.926  -6316488.953   2371372.258
10 0 59528   2502.000000  0   -1473324.363  -5916887.412   3196754.473
10 0 59528   2622.000000  0   -1535670.088  -5412443.120   3965842.209
10 0 59528   2742.000000  0   -1561507.005  -4812610.163   4665107.611
10 0 59528   2862.000000  0   -1548820.568  -4128557.070   5282264.937
10 0 59528   2982.000000  0   -1496480.051  -3372949.852   5806486.730
10 0 59528   3102.000000  0   -1404280.269  -2559706.978   6228590.347
10 0 59528   3222.000000  0   -1272961.934  -1703736.195   6541191.778
10 0 59528   3342.000000  0   -1104211.930   -820658.161   6738828.861
10 0 59528   3462.000000  0    -900643.986     73481.130   6818051.388
10 0 59528   3582.000000  0    -665758.927    962501.731   6777477.184
10 0 59528   3702.000000  0    -403884.217   1830382.093   6617815.313
10 0 59528   3822.000000  0    -120094.213   2661547.523   6341854.334
10 0 59528   3942.000000  0     179887.246   3441149.616   5954416.384
10 0 59528   4062.000000  0     489799.853   4155333.517   5462278.104
10 0 59528   4182.000000  0     802974.442   4791488.231   4874057.885
10 0 59528   4302.000000  0    1112473.421   5338476.063   4200070.639
10 0 59528   4422.000000  0    1411239.206   5786834.981   3452150.834
10 0 59528   4542.000000  0    1692250.609   6128952.754   2643450.292
10 0 59528   4662.000000  0    1948683.697   6359207.533   1788203.323
10 0 59528   4782.000000  0    2174068.567   6474067.024    901471.241
10 0 59528   4902.000000  0    2362442.602   6472145.466     -1130.488
10 0 59528   5022.000000  0    2508493.722   6354217.509   -903714.751
10 0 59528   5142.000000  0    2607691.334   6123189.612  -1790410.444
10 0 59528   5262.000000  0    2656401.777   5784028.919  -2645648.918
10 0 59528   5382.000000  0    2651984.989   5343651.762  -3454443.610
10 0 59528   5502.000000  0    2592869.866   4810773.554  -4202656.398
10 0 59528   5622.000000  0    2478606.216   4195725.691  -4877243.682
10 0 59528   5742.000000  0    2309893.090   3510245.373  -5466478.582
10 0 59528   5862.000000  0    2088583.981   2767244.096  -5960146.677
10 0 59528   5982.000000  0    1817668.468   1980558.720  -6349713.158
10 0 59528   6102.000000  0    1501231.299   1164691.536  -6628458.136
10 0 59528   6222.000000  0    1144391.042    334544.752  -6791581.832
10 0 59528   6342.000000  0     753217.059   -494847.646  -6836279.222
10 0 59528   6462.000000  0     334626.932  -1308586.917  -6761781.987
10 0 59528   6582.000000  0    -103732.847  -2092169.645  -6569368.855
10 0 59528   6702.000000  0    -553622.250  -2831739.028  -6262347.462
10 0 59528   6822.000000  0   -1006358.754  -3514326.952  -5846004.400
10 0 59528   6942.000000  0   -1452979.967  -4128079.637  -5327522.887
10 0 59528   7062.000000  0   -1884416.705  -4662465.679  -4715871.004
10 0 59528   7182.000000  0   -2291674.205  -5108463.256  -4021658.114
10 0 59528   7302.000000  0   -2666017.721  -5458720.850  -3256960.387
10 0 59528   7422.000000  0   -2999158.018  -5707688.091  -2435118.243
10 0 59528   7542.000000  0   -3283433.276  -5851714.224  -1570508.243
10 0 59528   7662.000000  0   -3511983.250  -5889110.995   -678291.798
10 0 59528   7782.000000  0   -3678910.105  -5820176.434    225855.043
10 0 59528   7902.000000  0   -3779421.469  -5647178.489   1126023.927
10 0 59528   8022.000000  0   -3809952.416  -5374298.780   2006363.055
10 0 59528   8142.000000  0   -3768262.425  -5007536.724   2851365.767
10 0 59528   8262.000000  0   -3653505.088  -4554577.661   3646151.379
10 0 59528   8382.000000  0   -3466269.087  -4024628.706   4376733.430
10 0 59528   8502.000000  0   -3208589.273  -3428225.525   5030269.394
10 0 59528   8622.000000  0   -2883928.211  -2777015.886   5595286.082
10 0 59528   8742.000000  0   -2497128.648  -2083526.394   6061878.048
10 0 59528   8862.000000  0   -2054338.740  -1360917.578   6421876.970
10 0 59528   8982.000000  0   -1562910.867   -622730.262   6668990.803
10 0 59528   9102.000000  0   -1031275.472    117371.310   6798905.972
10 0 59528   9222.000000  0    -468796.162    845850.960   6809356.451
10 0 59528   9342.000000  0     114394.945   1549547.464   6700161.701
10 0 59528   9462.000000  0     707579.527   2215912.236   6473229.795
10 0 59528   9582.000000  0    1299649.689   2833233.015   6132525.416
10 0 59528   9702.000000  0    1879314.963   3390840.143   5684005.001
10 0 59528   9822.000000  0    2435317.169   3879294.287   5135519.032
10 0 59528   9942.000000  0    2956650.824   4290551.468   4496680.680
99
